STARLINK-3651           
1 51985U 22025AF  23337.79668102 -.00001899  00000+0 -10130-3 0  9992
2 51985  53.2158 151.1965 0001364  83.6172 276.4975 15.08827116 97312
STARLINK-3645           
1 51986U 22025AG  23337.47921386 -.00000976  00000+0 -43213-4 0  9998
2 51986  53.2165 152.4619 0001651  87.2890 272.8291 15.08838284 96180
STARLINK-3644           
1 51987U 22025AH  23337.77363751 -.00001550  00000+0 -79309-4 0  9992
2 51987  53.2174 151.2959 0001274 101.1346 258.9790 15.08835699 97310
STARLINK-3640           
1 51988U 22025AJ  23337.49027637 -.00000797  00000+0 -32013-4 0  9995
2 51988  53.2159 152.5625 0001439  80.1852 279.9303 15.08834174 96183
STARLINK-3642           
1 51989U 22025AK  23337.76995850 -.00001967  00000+0 -10556-3 0  9994
2 51989  53.2164 151.3087 0001536  98.3771 261.7395 15.08829197 97324
STARLINK-3657           
1 51990U 22025AL  23337.80490999 -.00003858  00000+0 -22452-3 0  9994
2 51990  53.2154 131.1464 0001452  57.7087 302.4046 15.08827243 97603
STARLINK-3652           
1 51991U 22025AM  23337.49763719  .00003673  00000+0  24885-3 0  9998
2 51991  53.2158 152.5368 0001931  64.7756 295.3436 15.08829844 96185
STARLINK-3643           
1 51992U 22025AN  23337.59515710 -.00001731  00000+0 -90734-4 0  9998
2 51992  53.2168 132.0882 0001564 117.2909 242.8242 15.08830673 96046
STARLINK-3648           
1 51993U 22025AP  23337.75155597 -.00001027  00000+0 -46470-4 0  9996
2 51993  53.2152 151.3878 0001442  84.3418 275.7738 15.08833792 97336
STARLINK-3647           
1 51994U 22025AQ  23337.72395981 -.00001688  00000+0 -88017-4 0  9993
2 51994  53.2165 131.5119 0001262 104.9505 255.1627 15.08829226 97601
STARLINK-3636           
1 51995U 22025AR  23337.73500552 -.00002606  00000+0 -14580-3 0  9991
2 51995  53.2174 131.4633 0001307  93.6048 266.5094 15.08822368 97589
STARLINK-3538           
1 51996U 22025AS  23337.72027696 -.00002067  00000+0 -11182-3 0  9990
2 51996  53.2161 131.5303 0001341 105.1470 254.9671 15.08829003 97593
STARLINK-3589           
1 51997U 22025AT  23337.66506199 -.00009691  00000+0 -59195-3 0  9990
2 51997  53.2164 131.7767 0001448  88.2472 271.8686 15.08820126 97573
STARLINK-3618           
1 51998U 22025AU  23337.62459423 -.00002250  00000+0 -12333-3 0  9991
2 51998  53.2153 131.9574 0001461  89.1423 270.9736 15.08828355 96062
STARLINK-3667           
1 51999U 22025AV  23337.84908093 -.00001782  00000+0 -93960-4 0  9993
2 51999  53.2155 130.9410 0001449 109.0911 251.0239 15.08825837 97604
STARLINK-3653           
1 52000U 22025AW  23337.80859171 -.00001731  00000+0 -90725-4 0  9995
2 52000  53.2172 131.0470 0001382  78.7604 281.3543 15.08827520 97629
STARLINK-3659           
1 52001U 22025AX  23337.82060754 -.00002082  00000+0 -11282-3 0  9999
2 52001  53.2171 131.0888 0001434  79.6531 280.4623 15.08822536 97620
STARLINK-3668           
1 52002U 22025AY  23337.75340604 -.00001080  00000+0 -49782-4 0  9991
2 52002  53.2171 131.4193 0001310 111.1823 248.9310 15.08827516 97594
STARLINK-3654           
1 52003U 22025AZ  23337.81691650  .00003606  00000+0  24446-3 0  9992
2 52003  53.2162 131.1448 0001248  83.2174 276.8960 15.08847892 97605
STARLINK-3537           
1 52088U 22029A   23337.72393514 -.00002127  00000+0 -11562-3 0  9991
2 52088  53.2192  91.2475 0001306 101.7988 258.3150 15.08834034 97353
STARLINK-3722           
1 52089U 22029B   23337.81688850  .00008587  00000+0  55743-3 0  9995
2 52089  53.2155 201.0958 0001841 110.6533 249.4657 15.08807993 95826
STARLINK-3712           
1 52090U 22029C   23337.80583596 -.00004184  00000+0 -24499-3 0  9992
2 52090  53.2160 201.1442 0002047 125.0633 235.0552 15.08826167 95822
STARLINK-3713           
1 52091U 22029D   23337.81320466  .00000115  00000+0  25359-4 0  9994
2 52091  53.2155 201.1144 0001426  74.7041 285.4109 15.08817316 95822
STARLINK-3716           
1 52092U 22029E   23337.80952148 -.00004246  00000+0 -24895-3 0  9996
2 52092  53.2160 201.1330 0001353  96.8245 263.2901 15.08826965 95820
STARLINK-3673           
1 52093U 22029F   23337.79943330 -.00003293  00000+0 -18894-3 0  9991
2 52093  53.2152 201.1802 0002437 135.0017 225.1173 15.08827462 95824
STARLINK-3714           
1 52094U 22029G   23337.80216571 -.00006762  00000+0 -40737-3 0  9999
2 52094  53.2154 201.1651 0001272  93.2360 266.8777 15.08819896 95825
STARLINK-3701           
1 52095U 22029H   23337.85736179 -.00004440  00000+0 -26111-3 0  9997
2 52095  53.2148 200.9150 0001644 120.2555 239.8600 15.08831175 95830
STARLINK-3717           
1 52096U 22029J   23337.83619795 -.00004066  00000+0 -23764-3 0  9995
2 52096  53.2148 191.0084 0001443 107.4363 252.6787 15.08817438 95956
STARLINK-3665           
1 52098U 22029L   23337.86104176 -.00004134  00000+0 -24189-3 0  9990
2 52098  53.2153 200.8962 0001431  88.1319 271.9837 15.08825913 95835
STARLINK-3702           
1 52100U 22029N   23337.85368021  .00001399  00000+0  10601-3 0  9996
2 52100  53.2155 200.9299 0001523 117.0457 243.0691 15.08827319 95832
STARLINK-3703           
1 52101U 22029P   23337.79850030 -.00002871  00000+0 -16240-3 0  9999
2 52101  53.2156 201.3697 0001497 104.0611 256.0548 15.08827636 95814
STARLINK-3709           
1 52102U 22029Q   23337.85557061  .00009951  00000+0  64296-3 0  9993
2 52102  53.2139 190.9260 0001466 100.6772 259.4385 15.08807920 95967
STARLINK-3705           
1 52103U 22029R   23337.56387925 -.00002763  00000+0 -15560-3 0  9998
2 52103  53.2161 192.2277 0001735 114.8376 245.2797 15.08827815 95912
STARLINK-3706           
1 52105U 22029T   23336.89507913 -.00007147  00000+0 -43170-3 0  9995
2 52105  53.2151 195.2301 0001454  82.1404 277.9753 15.08816896 95811
STARLINK-3670           
1 52106U 22029U   23337.84263929 -.00003168  00000+0 -18105-3 0  9997
2 52106  53.2152 200.9765 0001451 109.0284 251.0865 15.08831750 95827
STARLINK-3658           
1 52107U 22029V   23337.81780148 -.00001869  00000+0 -99396-4 0  9990
2 52107  53.2157 191.0860 0001686 111.2578 248.8594 15.08832078 95951
STARLINK-3698           
1 52108U 22029W   23337.82516021 -.00004104  00000+0 -23995-3 0  9995
2 52108  53.2147 191.0570 0001331 100.6920 259.4222 15.08829819 95954
STARLINK-3687           
1 52110U 22029Y   23337.82151085 -.00034956  00000+0 -21954-2 0  9993
2 52110  53.2160 191.0759 0001093  95.1968 264.9149 15.08732792 95958
STARLINK-3708           
1 52111U 22029Z   23337.80676202  .00001772  00000+0  12938-3 0  9996
2 52111  53.2156 191.1450 0001563  81.5140 278.6029 15.08837429 95958
STARLINK-3734           
1 52112U 22029AA  23337.81411660 -.00003222  00000+0 -18444-3 0  9995
2 52112  53.2149 191.1061 0001470  88.6829 271.4331 15.08837025 95957
STARLINK-3736           
1 52113U 22029AB  23337.79940408  .00003201  00000+0  21922-3 0  9990
2 52113  53.2153 191.1746 0001580 112.4040 247.7120 15.08821405 95953
STARLINK-3737           
1 52114U 22029AC  23337.81043998 -.00004272  00000+0 -25054-3 0  9993
2 52114  53.2148 191.1261 0001266  97.2998 262.8138 15.08831365 95967
STARLINK-3685           
1 52115U 22029AD  23337.85830417  .00025830  00000+0  16360-2 0  9998
2 52115  53.2152 190.9094 0001408  99.4299 260.6853 15.08819884 95962
STARLINK-3735           
1 52116U 22029AE  23337.80308172 -.00001534  00000+0 -78356-4 0  9994
2 52116  53.2165 191.1603 0001416  82.1566 277.9587 15.08820355 95950
STARLINK-3738           
1 52117U 22029AF  23337.85091698 -.00003059  00000+0 -17425-3 0  9995
2 52117  53.2150 190.9449 0001461 102.8965 257.2191 15.08831361 95976
STARLINK-3743           
1 52118U 22029AG  23337.59699835 -.00004471  00000+0 -26305-3 0  9990
2 52118  53.2167 192.0862 0001172  87.9458 272.1668 15.08835698 95923
STARLINK-3558           
1 52119U 22029AH  23337.84357133 -.00001774  00000+0 -93402-4 0  9997
2 52119  53.2158 190.9776 0001385  91.1616 268.9535 15.08827155 95974
STARLINK-3534           
1 52120U 22029AJ  23337.78836206 -.00004454  00000+0 -26198-3 0  9990
2 52120  53.2153 191.2288 0001452  70.8621 289.2528 15.08831986 95962
STARLINK-3678           
1 52121U 22029AK  23337.82608056 -.00006223  00000+0 -37336-3 0  9998
2 52121  53.2145 181.0573 0001366  73.1090 287.0052 15.08829618 96090
STARLINK-3726           
1 52122U 22029AL  23337.84723592 -.00003068  00000+0 -17475-3 0  9990
2 52122  53.2155 190.9598 0001680 123.1473 236.9681 15.08832932 95967
STARLINK-3725           
1 52123U 22029AM  23337.81231375 -.00005189  00000+0 -30821-3 0  9997
2 52123  53.2155 181.0458 0001454 106.5572 253.5580 15.08832135 96103
STARLINK-3684           
1 52124U 22029AN  23337.83987696 -.00002931  00000+0 -16622-3 0  9999
2 52124  53.2161 190.9919 0001558 116.2923 243.8229 15.08827433 95965
STARLINK-3727           
1 52125U 22029AP  23337.81504785 -.00002666  00000+0 -14953-3 0  9992
2 52125  53.2160 181.1033 0001230 119.0966 241.0150 15.08830939 96104
STARLINK-3732           
1 52126U 22029AQ  23337.82240587 -.00002316  00000+0 -12751-3 0  9997
2 52126  53.2150 181.0741 0001637  68.2565 291.8601 15.08823403 96090
STARLINK-3715           
1 52127U 22029AR  23337.81136155  .00000106  00000+0  24746-4 0  9993
2 52127  53.2154 181.1190 0001776 111.1532 248.9650 15.08820380 96098
STARLINK-3661           
1 52129U 22029AT  23337.80400007 -.00004356  00000+0 -25585-3 0  9998
2 52129  53.2151 181.1543 0001222  95.6436 264.4696 15.08824176 96106
STARLINK-3711           
1 52131U 22029AV  23337.80032669 -.00003424  00000+0 -19720-3 0  9995
2 52131  53.2156 181.1720 0001249  95.1084 265.0051 15.08831631 96100
STARLINK-3718           
1 52132U 22029AW  23337.80767445 -.00004668  00000+0 -27548-3 0  9991
2 52132  53.2152 181.1371 0001444 102.5280 257.5874 15.08825820 96109
STARLINK-3707           
1 52133U 22029AX  23337.79296179 -.00003549  00000+0 -20507-3 0  9996
2 52133  53.2145 181.2059 0001491  83.3895 276.7267 15.08825802 96105
